CCSDS_OMM_VERS = 2.0
CREATION_DATE  = 
ORIGINATOR     = 

OBJECT_NAME    = STARLINK-36969
OBJECT_ID      = 2026-050A
CENTER_NAME    = EARTH
REF_FRAME      = TEME
TIME_SYSTEM    = UTC
MEAN_ELEMENT_THEORY = SGP/SGP4

EPOCH          = 2026-03-26T18:11:47.425920
MEAN_MOTION    = 15.80958849
ECCENTRICITY   = .00011027
INCLINATION    = 53.1593
RA_OF_ASC_NODE = 196.3005
ARG_OF_PERICENTER = 112.9867
MEAN_ANOMALY   = 247.1272

EPHEMERIS_TYPE = 0
CLASSIFICATION_TYPE = U
NORAD_CAT_ID   = 68167
ELEMENT_SET_NO = 999
REV_AT_EPOCH   = 317
BSTAR          = .11214804E-2
MEAN_MOTION_DOT = .227471E-2
MEAN_MOTION_DDOT = 0

CCSDS_OMM_VERS = 2.0
CREATION_DATE  = 
ORIGINATOR     = 

OBJECT_NAME    = STARLINK-36984
OBJECT_ID      = 2026-050B
CENTER_NAME    = EARTH
REF_FRAME      = TEME
TIME_SYSTEM    = UTC
MEAN_ELEMENT_THEORY = SGP/SGP4

EPOCH          = 2026-03-26T18:10:42.269952
MEAN_MOTION    = 15.80951452
ECCENTRICITY   = .00003485
INCLINATION    = 53.1595
RA_OF_ASC_NODE = 196.2957
ARG_OF_PERICENTER = 150.6597
MEAN_ANOMALY   = 209.4446

EPHEMERIS_TYPE = 0
CLASSIFICATION_TYPE = U
NORAD_CAT_ID   = 68168
ELEMENT_SET_NO = 999
REV_AT_EPOCH   = 317
BSTAR          = .11061441E-2
MEAN_MOTION_DOT = .224195E-2
MEAN_MOTION_DDOT = 0

CCSDS_OMM_VERS = 2.0
CREATION_DATE  = 
ORIGINATOR     = 

OBJECT_NAME    = STARLINK-37077
OBJECT_ID      = 2026-050C
CENTER_NAME    = EARTH
REF_FRAME      = TEME
TIME_SYSTEM    = UTC
MEAN_ELEMENT_THEORY = SGP/SGP4

EPOCH          = 2026-03-26T18:09:37.794816
MEAN_MOTION    = 15.80965787
ECCENTRICITY   = .00009876
INCLINATION    = 53.1596
RA_OF_ASC_NODE = 196.2907
ARG_OF_PERICENTER = 84.1630
MEAN_ANOMALY   = 275.9505

EPHEMERIS_TYPE = 0
CLASSIFICATION_TYPE = U
NORAD_CAT_ID   = 68169
ELEMENT_SET_NO = 999
REV_AT_EPOCH   = 317
BSTAR          = .10996044E-2
MEAN_MOTION_DOT = .222975E-2
MEAN_MOTION_DDOT = 0

CCSDS_OMM_VERS = 2.0
CREATION_DATE  = 
ORIGINATOR     = 

OBJECT_NAME    = STARLINK-37003
OBJECT_ID      = 2026-050D
CENTER_NAME    = EARTH
REF_FRAME      = TEME
TIME_SYSTEM    = UTC
MEAN_ELEMENT_THEORY = SGP/SGP4

EPOCH          = 2026-03-26T18:08:32.839296
MEAN_MOTION    = 15.81001705
ECCENTRICITY   = .00008896
INCLINATION    = 53.1594
RA_OF_ASC_NODE = 196.2853
ARG_OF_PERICENTER = 79.1502
MEAN_ANOMALY   = 280.9621

EPHEMERIS_TYPE = 0
CLASSIFICATION_TYPE = U
NORAD_CAT_ID   = 68170
ELEMENT_SET_NO = 999
REV_AT_EPOCH   = 317
BSTAR          = .16004284E-2
MEAN_MOTION_DOT = .32948E-2
MEAN_MOTION_DDOT = 0

CCSDS_OMM_VERS = 2.0
CREATION_DATE  = 
ORIGINATOR     = 

OBJECT_NAME    = STARLINK-37034
OBJECT_ID      = 2026-050E
CENTER_NAME    = EARTH
REF_FRAME      = TEME
TIME_SYSTEM    = UTC
MEAN_ELEMENT_THEORY = SGP/SGP4

EPOCH          = 2026-03-26T18:07:27.958944
MEAN_MOTION    = 15.80961897
ECCENTRICITY   = .00006833
INCLINATION    = 53.1596
RA_OF_ASC_NODE = 196.2802
ARG_OF_PERICENTER = 39.3338
MEAN_ANOMALY   = 320.7735

EPHEMERIS_TYPE = 0
CLASSIFICATION_TYPE = U
NORAD_CAT_ID   = 68171
ELEMENT_SET_NO = 999
REV_AT_EPOCH   = 317
BSTAR          = .10949564E-2
MEAN_MOTION_DOT = .221965E-2
MEAN_MOTION_DDOT = 0

CCSDS_OMM_VERS = 2.0
CREATION_DATE  = 
ORIGINATOR     = 

OBJECT_NAME    = STARLINK-37031
OBJECT_ID      = 2026-050F
CENTER_NAME    = EARTH
REF_FRAME      = TEME
TIME_SYSTEM    = UTC
MEAN_ELEMENT_THEORY = SGP/SGP4

EPOCH          = 2026-03-26T18:06:23.293728
MEAN_MOTION    = 15.80944521
ECCENTRICITY   = .00006837
INCLINATION    = 53.1595
RA_OF_ASC_NODE = 196.2748
ARG_OF_PERICENTER = 98.0859
MEAN_ANOMALY   = 262.0241

EPHEMERIS_TYPE = 0
CLASSIFICATION_TYPE = U
NORAD_CAT_ID   = 68172
ELEMENT_SET_NO = 999
REV_AT_EPOCH   = 317
BSTAR          = .91113801E-3
MEAN_MOTION_DOT = .183609E-2
MEAN_MOTION_DDOT = 0

CCSDS_OMM_VERS = 2.0
CREATION_DATE  = 
ORIGINATOR     = 

OBJECT_NAME    = STARLINK-37076
OBJECT_ID      = 2026-050G
CENTER_NAME    = EARTH
REF_FRAME      = TEME
TIME_SYSTEM    = UTC
MEAN_ELEMENT_THEORY = SGP/SGP4

EPOCH          = 2026-03-26T18:05:18.676896
MEAN_MOTION    = 15.80949626
ECCENTRICITY   = .0001387
INCLINATION    = 53.1596
RA_OF_ASC_NODE = 196.2704
ARG_OF_PERICENTER = 92.9614
MEAN_ANOMALY   = 267.1567

EPHEMERIS_TYPE = 0
CLASSIFICATION_TYPE = U
NORAD_CAT_ID   = 68173
ELEMENT_SET_NO = 999
REV_AT_EPOCH   = 317
BSTAR          = .10249552E-2
MEAN_MOTION_DOT = .207253E-2
MEAN_MOTION_DDOT = 0

CCSDS_OMM_VERS = 2.0
CREATION_DATE  = 
ORIGINATOR     = 

OBJECT_NAME    = STARLINK-37078
OBJECT_ID      = 2026-050H
CENTER_NAME    = EARTH
REF_FRAME      = TEME
TIME_SYSTEM    = UTC
MEAN_ELEMENT_THEORY = SGP/SGP4

EPOCH          = 2026-03-26T19:35:15.024768
MEAN_MOTION    = 15.81072028
ECCENTRICITY   = .00008399
INCLINATION    = 53.1593
RA_OF_ASC_NODE = 195.9482
ARG_OF_PERICENTER = 71.0035
MEAN_ANOMALY   = 289.1079

EPHEMERIS_TYPE = 0
CLASSIFICATION_TYPE = U
NORAD_CAT_ID   = 68174
ELEMENT_SET_NO = 999
REV_AT_EPOCH   = 318
BSTAR          = .198803E-2
MEAN_MOTION_DOT = .414927E-2
MEAN_MOTION_DDOT = 0

CCSDS_OMM_VERS = 2.0
CREATION_DATE  = 
ORIGINATOR     = 

OBJECT_NAME    = STARLINK-36886
OBJECT_ID      = 2026-050J
CENTER_NAME    = EARTH
REF_FRAME      = TEME
TIME_SYSTEM    = UTC
MEAN_ELEMENT_THEORY = SGP/SGP4

EPOCH          = 2026-03-26T18:03:08.911872
MEAN_MOTION    = 15.80949914
ECCENTRICITY   = .00009768
INCLINATION    = 53.1593
RA_OF_ASC_NODE = 196.2598
ARG_OF_PERICENTER = 105.5576
MEAN_ANOMALY   = 254.5555

EPHEMERIS_TYPE = 0
CLASSIFICATION_TYPE = U
NORAD_CAT_ID   = 68175
ELEMENT_SET_NO = 999
REV_AT_EPOCH   = 317
BSTAR          = .10614896E-2
MEAN_MOTION_DOT = .21486E-2
MEAN_MOTION_DDOT = 0

CCSDS_OMM_VERS = 2.0
CREATION_DATE  = 
ORIGINATOR     = 

OBJECT_NAME    = STARLINK-36905
OBJECT_ID      = 2026-050K
CENTER_NAME    = EARTH
REF_FRAME      = TEME
TIME_SYSTEM    = UTC
MEAN_ELEMENT_THEORY = SGP/SGP4

EPOCH          = 2026-03-26T19:33:05.625216
MEAN_MOTION    = 15.81023302
ECCENTRICITY   = .00007616
INCLINATION    = 53.1589
RA_OF_ASC_NODE = 195.9370
ARG_OF_PERICENTER = 146.6139
MEAN_ANOMALY   = 213.4932

EPHEMERIS_TYPE = 0
CLASSIFICATION_TYPE = U
NORAD_CAT_ID   = 68176
ELEMENT_SET_NO = 999
REV_AT_EPOCH   = 318
BSTAR          = .1523241E-2
MEAN_MOTION_DOT = .313274E-2
MEAN_MOTION_DDOT = 0

CCSDS_OMM_VERS = 2.0
CREATION_DATE  = 
ORIGINATOR     = 

OBJECT_NAME    = STARLINK-36668
OBJECT_ID      = 2026-050L
CENTER_NAME    = EARTH
REF_FRAME      = TEME
TIME_SYSTEM    = UTC
MEAN_ELEMENT_THEORY = SGP/SGP4

EPOCH          = 2026-03-26T19:31:59.109312
MEAN_MOTION    = 15.81141565
ECCENTRICITY   = .00008456
INCLINATION    = 53.1592
RA_OF_ASC_NODE = 195.9322
ARG_OF_PERICENTER = 112.6170
MEAN_ANOMALY   = 247.4942

EPHEMERIS_TYPE = 0
CLASSIFICATION_TYPE = U
NORAD_CAT_ID   = 68177
ELEMENT_SET_NO = 999
REV_AT_EPOCH   = 318
BSTAR          = .21630666E-2
MEAN_MOTION_DOT = .455121E-2
MEAN_MOTION_DDOT = 0

CCSDS_OMM_VERS = 2.0
CREATION_DATE  = 
ORIGINATOR     = 

OBJECT_NAME    = STARLINK-36677
OBJECT_ID      = 2026-050M
CENTER_NAME    = EARTH
REF_FRAME      = TEME
TIME_SYSTEM    = UTC
MEAN_ELEMENT_THEORY = SGP/SGP4

EPOCH          = 2026-03-26T19:30:56.052000
MEAN_MOTION    = 15.81013723
ECCENTRICITY   = .00005749
INCLINATION    = 53.1590
RA_OF_ASC_NODE = 195.9272
ARG_OF_PERICENTER = 179.1743
MEAN_ANOMALY   = 180.9281

EPHEMERIS_TYPE = 0
CLASSIFICATION_TYPE = U
NORAD_CAT_ID   = 68178
ELEMENT_SET_NO = 999
REV_AT_EPOCH   = 318
BSTAR          = .17061696E-2
MEAN_MOTION_DOT = .35245E-2
MEAN_MOTION_DDOT = 0

